[{"OBJECT_NAME":"SHIYAN-21 (SY-21)","OBJECT_ID":"2022-172A","EPOCH":"2026-03-09T23:40:42.191616","MEAN_MOTION":15.28197132,"ECCENTRICITY":0.00206059,"INCLINATION":35.9768,"RA_OF_ASC_NODE":332.6944,"ARG_OF_PERICENTER":79.3933,"MEAN_ANOMALY":280.9121,"EPHEMERIS_TYPE":0,"CLASSIFICATION_TYPE":"U","NORAD_CAT_ID":54752,"ELEMENT_SET_NO":999,"REV_AT_EPOCH":18050,"BSTAR":0.00041186164,"MEAN_MOTION_DOT":0.00011616,"MEAN_MOTION_DDOT":0},{"OBJECT_NAME":"STARLINK-33908","OBJECT_ID":"2025-087D","EPOCH":"2026-03-09T17:02:36.324960","MEAN_MOTION":15.30171525,"ECCENTRICITY":0.00014676,"INCLINATION":53.1576,"RA_OF_ASC_NODE":219.3998,"ARG_OF_PERICENTER":42.0466,"MEAN_ANOMALY":318.0647,"EPHEMERIS_TYPE":0,"CLASSIFICATION_TYPE":"U","NORAD_CAT_ID":63700,"ELEMENT_SET_NO":999,"REV_AT_EPOCH":4920,"BSTAR":0.00033875145,"MEAN_MOTION_DOT":9.678e-5,"MEAN_MOTION_DDOT":0}]
